[{"OBJECT_NAME":"STARLINK-4014","OBJECT_ID":"2022-053AE","EPOCH":"2026-03-09T11:39:56.556000","MEAN_MOTION":15.08827681,"ECCENTRICITY":0.00011443,"INCLINATION":53.2168,"RA_OF_ASC_NODE":145.039,"ARG_OF_PERICENTER":96.0818,"MEAN_ANOMALY":264.0305,"EPHEMERIS_TYPE":0,"CLASSIFICATION_TYPE":"U","NORAD_CAT_ID":52684,"ELEMENT_SET_NO":999,"REV_AT_EPOCH":21110,"BSTAR":-0.00011274209,"MEAN_MOTION_DOT":-2.081e-5,"MEAN_MOTION_DDOT":0},{"OBJECT_NAME":"ONEWEB-0618","OBJECT_ID":"2023-004V","EPOCH":"2026-03-09T21:27:12.326688","MEAN_MOTION":15.11974897,"ECCENTRICITY":0.00107842,"INCLINATION":86.9069,"RA_OF_ASC_NODE":217.8931,"ARG_OF_PERICENTER":307.7231,"MEAN_ANOMALY":52.303,"EPHEMERIS_TYPE":0,"CLASSIFICATION_TYPE":"U","NORAD_CAT_ID":55159,"ELEMENT_SET_NO":999,"REV_AT_EPOCH":16725,"BSTAR":0.00049587895,"MEAN_MOTION_DOT":8.547e-5,"MEAN_MOTION_DDOT":0}]
